NORAD_CAT_ID,OBJECT_NAME,OBJECT_TYPE,EPOCH,MEAN_MOTION,ECCENTRICITY,INCLINATION,RA_OF_ASC_NODE,ARG_OF_PERICENTER,MEAN_ANOMALY,BSTAR,MEAN_MOTION_DOT,MEAN_MOTION_DDOT,TLE_LINE0,TLE_LINE1,TLE_LINE2,SEMIMAJOR_AXIS,PERIOD,APOGEE,PERIGEE,DECAYED
50199.0,STARLINK-3270,PAYLOAD,2024-02-23 18:57:26,15.08841436,0.0002329,53.2207,343.1048,86.9958,273.13,0.00015249,2.14e-05,0.0,0 STARLINK-3270,1 50199U 21125AV  24054.78988965  .00002140  00000-0  15249-3 0  9991,2 50199  53.2207 343.1048 0002329  86.9958 273.1300 15.08841436123797,6917.876,95.437,541.352,538.13,0.0
50199.0,STARLINK-3270,PAYLOAD,2024-02-24 12:26:40,15.08845076,0.0001807,53.2188,339.8364,89.0461,271.0738,3.9464e-05,3.4e-06,0.0,0 STARLINK-3270,1 50199U 21125AV  24055.51852764  .00000340  00000-0  39464-4 0  9996,2 50199  53.2188 339.8364 0001807  89.0461 271.0738 15.08845076124383,6917.865,95.437,540.98,538.48,0.0
50199.0,STARLINK-3270,PAYLOAD,2024-02-24 18:48:13,15.08836476,0.0001794,53.2187,338.6482,87.8886,272.2312,0.00014767,2.063e-05,0.0,0 STARLINK-3270,1 50199U 21125AV  24055.78349162  .00002063  00000-0  14767-3 0  9990,2 50199  53.2187 338.6482 0001794  87.8886 272.2312 15.08836476123948,6917.891,95.438,540.997,538.515,0.0
50199.0,STARLINK-3270,PAYLOAD,2024-02-25 12:17:27,15.08853956,0.0001717,53.2184,335.3767,92.3864,267.7325,-7.7838e-05,-1.527e-05,0.0,0 STARLINK-3270,1 50199U 21125AV  24056.51212428 -.00001527  00000-0 -77838-4 0  9991,2 50199  53.2184 335.3767 0001717  92.3864 267.7325 15.08853956124055,6917.838,95.437,540.891,538.515,0.0
50199.0,STARLINK-3270,PAYLOAD,2024-02-25 21:49:46,15.08847903,0.0001625,53.2169,333.592,91.3967,268.7211,5.6282e-05,6.08e-06,0.0,0 STARLINK-3270,1 50199U 21125AV  24056.90956206  .00000608  00000-0  56282-4 0  9990,2 50199  53.2169 333.5920 0001625  91.3967 268.7211 15.08847903124599,6917.856,95.437,540.845,538.597,0.0
50199.0,STARLINK-3270,PAYLOAD,2024-02-26 04:11:18,15.08854887,0.0001439,53.2178,332.4008,91.5182,268.5975,0.0001058,1.397e-05,0.0,0 STARLINK-3270,1 50199U 21125AV  24057.17451443  .00001397  00000-0  10580-3 0  9999,2 50199  53.2178 332.4008 0001439  91.5182 268.5975 15.08854887124637,6917.835,95.437,540.695,538.704,0.0
50199.0,STARLINK-3270,PAYLOAD,2024-02-26 18:29:48,15.08829372,0.0001112,53.219,329.7265,82.9395,277.1724,-2.8362e-05,-7.39e-06,0.0,0 STARLINK-3270,1 50199U 21125AV  24057.77069446 -.00000739  00000-0 -28362-4 0  9992,2 50199  53.2190 329.7265 0001112  82.9395 277.1724 15.08829372124249,6917.913,95.438,540.547,539.009,0.0
50199.0,STARLINK-3270,PAYLOAD,2024-02-26 21:40:34,15.08832653,0.0001377,53.2188,329.1312,96.2062,263.9087,-3.7648e-06,-3.48e-06,0.0,0 STARLINK-3270,1 50199U 21125AV  24057.90317215 -.00000348  00000-0 -37648-5 0  9991,2 50199  53.2188 329.1312 0001377  96.2062 263.9087 15.08832653124741,6917.903,95.438,540.72,538.815,0.0
50199.0,STARLINK-3270,PAYLOAD,2024-02-27 00:51:20,15.08836629,0.0001519,53.2182,328.5352,103.659,256.4571,-7.7921e-06,-4.12e-06,0.0,0 STARLINK-3270,1 50199U 21125AV  24058.03565004 -.00000412  00000-0 -77921-5 0  9997,2 50199  53.2182 328.5352 0001519 103.6590 256.4571 15.08836629124280,6917.891,95.438,540.807,538.705,0.0
50199.0,STARLINK-3270,PAYLOAD,2024-02-27 10:23:38,15.08838946,0.000146,53.2178,326.7505,96.7598,263.356,-1.1773e-06,-3.07e-06,0.0,0 STARLINK-3270,1 50199U 21125AV  24058.43308921 -.00000307  00000-0 -11773-5 0  9990,2 50199  53.2178 326.7505 0001460  96.7598 263.3560 15.08838946124829,6917.884,95.438,540.759,538.739,0.0
50199.0,STARLINK-3270,PAYLOAD,2024-02-27 18:20:35,15.0882805,0.0001468,53.219,325.2647,101.6549,258.4608,-6.6724e-06,-3.94e-06,0.0,0 STARLINK-3270,1 50199U 21125AV  24058.76429690 -.00000394  00000-0 -66724-5 0  9995,2 50199  53.2190 325.2647 0001468 101.6549 258.4608 15.08828050124399,6917.917,95.438,540.797,538.766,0.0
50199.0,STARLINK-3270,PAYLOAD,2024-02-27 21:31:21,15.0883536,0.0001648,53.2192,324.6706,104.9711,255.1464,-1.7465e-05,-5.66e-06,0.0,0 STARLINK-3270,1 50199U 21125AV  24058.89677365 -.00000566  00000-0 -17465-4 0  9991,2 50199  53.2192 324.6706 0001648 104.9711 255.1464 15.08835360124898,6917.895,95.438,540.9,538.62,0.0
50199.0,STARLINK-3270,PAYLOAD,2024-02-28 00:42:07,15.08838227,0.0001502,53.2195,324.0784,94.7351,265.3813,1.4715e-05,-5.4e-07,0.0,0 STARLINK-3270,1 50199U 21125AV  24059.02925189 -.00000054  00000-0  14715-4 0  9993,2 50199  53.2195 324.0784 0001502  94.7351 265.3813 15.08838227124432,6917.886,95.438,540.79,538.712,0.0
50199.0,STARLINK-3270,PAYLOAD,2024-02-28 10:14:25,15.08844467,0.0001416,53.2192,322.2944,92.319,267.7965,-8.6006e-05,-1.657e-05,0.0,0 STARLINK-3270,1 50199U 21125AV  24059.42668959 -.00001657  00000-0 -86006-4 0  9999,2 50199  53.2192 322.2944 0001416  92.3190 267.7965 15.08844467124972,6917.867,95.437,540.711,538.752,0.0
50199.0,STARLINK-3270,PAYLOAD,2024-02-28 22:57:31,15.08833769,0.000152,53.2191,319.9153,106.1584,253.9576,0.00010532,1.388e-05,0.0,0 STARLINK-3270,1 50199U 21125AV  24059.95661542  .00001388  00000-0  10532-3 0  9997,2 50199  53.2191 319.9153 0001520 106.1584 253.9576 15.08833769125051,6917.899,95.438,540.816,538.713,0.0
50199.0,STARLINK-3270,PAYLOAD,2024-02-29 03:43:40,15.08839508,0.0001482,53.2194,319.0231,104.1744,255.9413,0.00015416,2.166e-05,0.0,0 STARLINK-3270,1 50199U 21125AV  24060.15533137  .00002166  00000-0  15416-3 0  9990,2 50199  53.2194 319.0231 0001482 104.1744 255.9413 15.08839508124604,6917.882,95.438,540.772,538.722,0.0
50199.0,STARLINK-3270,PAYLOAD,2024-02-29 10:05:13,15.08842666,0.0001375,53.2188,317.8332,91.2855,268.8295,6.5794e-05,7.59e-06,0.0,0 STARLINK-3270,1 50199U 21125AV  24060.42029245  .00000759  00000-0  65794-4 0  9991,2 50199  53.2188 317.8332 0001375  91.2855 268.8295 15.08842666125123,6917.872,95.437,540.688,538.786,0.0
50199.0,STARLINK-3270,PAYLOAD,2024-02-29 22:48:18,15.0883844,0.0001396,53.2186,315.4542,97.67,262.4451,0.00019051,2.745e-05,0.0,0 STARLINK-3270,1 50199U 21125AV  24060.95021308  .00002745  00000-0  19051-3 0  9992,2 50199  53.2186 315.4542 0001396  97.6700 262.4451 15.08838440125208,6917.885,95.438,540.716,538.784,0.0
50199.0,STARLINK-3270,PAYLOAD,2024-03-01 09:56:00,15.08839478,0.0001527,53.2183,313.3722,90.1632,269.9535,7.1322e-05,8.47e-06,0.0,0 STARLINK-3270,1 50199U 21125AV  24061.41389587  .00000847  00000-0  71322-4 0  9991,2 50199  53.2183 313.3722 0001527  90.1632 269.9535 15.08839478125274,6917.882,95.438,540.803,538.691,0.0
50199.0,STARLINK-3270,PAYLOAD,2024-03-01 21:03:42,15.08841086,0.0001604,53.2168,311.291,90.2865,269.8311,0.00010975,1.459e-05,0.0,0 STARLINK-3270,1 50199U 21125AV  24061.87757437  .00001459  00000-0  10975-3 0  9990,2 50199  53.2168 311.2910 0001604  90.2865 269.8311 15.08841086125345,6917.877,95.437,540.852,538.632,0.0
50199.0,STARLINK-3270,PAYLOAD,2024-03-02 00:14:28,15.08839694,0.00015,53.2179,310.6981,97.4241,262.6922,0.00011296,1.51e-05,0.0,0 STARLINK-3270,1 50199U 21125AV  24062.01005497  .00001510  00000-0  11296-3 0  9994,2 50199  53.2179 310.6981 0001500  97.4241 262.6922 15.08839694125363,6917.881,95.438,540.784,538.709,0.0
50199.0,STARLINK-3270,PAYLOAD,2024-03-02 22:29:52,15.08846621,0.0001411,53.2174,306.5359,91.7164,268.399,2.0277e-05,3.5e-07,0.0,0 STARLINK-3270,1 50199U 21125AV  24062.93741238  .00000035  00000-0  20277-4 0  9996,2 50199  53.2174 306.5359 0001411  91.7164 268.3990 15.08846621125505,6917.86,95.437,540.701,538.749,0.0
50199.0,STARLINK-3270,PAYLOAD,2024-03-03 01:40:38,15.08852528,0.0001328,53.2169,305.9382,109.6065,250.507,5.0089e-05,5.1e-06,0.0,0 STARLINK-3270,1 50199U 21125AV  24063.06988564  .00000510  00000-0  50089-4 0  9998,2 50199  53.2169 305.9382 0001328 109.6065 250.5070 15.08852528125048,6917.842,95.437,540.626,538.788,0.0
50199.0,STARLINK-3270,PAYLOAD,2024-03-03 09:37:34,15.0884636,0.0001358,53.2177,304.4466,106.3487,253.7655,1.7707e-05,-6e-08,0.0,0 STARLINK-3270,1 50199U 21125AV  24063.40108953 -.00000006  00000-0  17707-4 0  9993,2 50199  53.2177 304.4466 0001358 106.3487 253.7655 15.08846360125095,6917.861,95.437,540.665,538.787,0.0
50199.0,STARLINK-3270,PAYLOAD,2024-03-03 20:45:16,15.08833565,8.63e-05,53.2182,302.365,114.0135,246.0947,0.00034876,5.266e-05,0.0,0 STARLINK-3270,1 50199U 21125AV  24063.86477357  .00005266  00000-0  34876-3 0  9997,2 50199  53.2182 302.3650 0000863 114.0135 246.0947 15.08833565125642,6917.9,95.438,540.362,539.168,0.0
50199.0,STARLINK-3270,PAYLOAD,2024-03-03 22:20:38,15.08851648,0.0001729,53.2182,302.0669,130.3022,229.8122,2.4362e-05,1e-06,0.0,0 STARLINK-3270,1 50199U 21125AV  24063.93100594  .00000100  00000-0  24362-4 0  9993,2 50199  53.2182 302.0669 0001729 130.3022 229.8122 15.08851648125654,6917.845,95.437,540.906,538.514,0.0
50199.0,STARLINK-3270,PAYLOAD,2024-03-04 22:11:25,15.08858661,0.0001409,53.2165,297.6101,99.3048,260.8104,0.00026949,4.006e-05,0.0,0 STARLINK-3270,1 50199U 21125AV  24064.92459885  .00004006  00000-0  26949-3 0  9994,2 50199  53.2165 297.6101 0001409  99.3048 260.8104 15.08858661125323,6917.823,95.436,540.663,538.714,0.0
50199.0,STARLINK-3270,PAYLOAD,2024-03-05 01:22:11,15.08858603,0.0001383,53.2167,297.0116,96.4312,263.6837,0.00026998,4.014e-05,0.0,0 STARLINK-3270,1 50199U 21125AV  24065.05707739  .00004014  00000-0  26998-3 0  9996,2 50199  53.2167 297.0116 0001383  96.4312 263.6837 15.08858603125823,6917.824,95.436,540.645,538.732,0.0
50199.0,STARLINK-3270,PAYLOAD,2024-03-05 20:26:49,15.08829596,0.0001526,53.2172,293.4443,103.9581,256.1581,-0.00028802,-4.868e-05,0.0,0 STARLINK-3270,1 50199U 21125AV  24065.85195967 -.00004868  00000-0 -28802-3 0  9993,2 50199  53.2172 293.4443 0001526 103.9581 256.1581 15.08829596125465,6917.912,95.438,540.833,538.722,0.0
50199.0,STARLINK-3270,PAYLOAD,2024-03-05 22:02:11,15.08833748,0.0001393,53.2164,293.1477,96.5403,263.5748,-0.0004601,-7.602e-05,0.0,0 STARLINK-3270,1 50199U 21125AV  24065.91819404 -.00007602  00000-0 -46010-3 0  9999,2 50199  53.2164 293.1477 0001393  96.5403 263.5748 15.08833748125474,6917.899,95.438,540.728,538.801,0.0
